[{"OBJECT_NAME":"KUIPER-00018","OBJECT_ID":"2025-088K","EPOCH":"2026-03-09T09:14:13.950816","MEAN_MOTION":14.79966884,"ECCENTRICITY":0.00010275,"INCLINATION":51.9017,"RA_OF_ASC_NODE":101.9157,"ARG_OF_PERICENTER":120.7858,"MEAN_ANOMALY":239.3206,"EPHEMERIS_TYPE":0,"CLASSIFICATION_TYPE":"U","NORAD_CAT_ID":63733,"ELEMENT_SET_NO":999,"REV_AT_EPOCH":4744,"BSTAR":0.001710843,"MEAN_MOTION_DOT":0.00012856,"MEAN_MOTION_DDOT":0},{"OBJECT_NAME":"CZ-6A DEB","OBJECT_ID":"2022-151QP","EPOCH":"2026-03-09T02:57:40.392288","MEAN_MOTION":14.90154105,"ECCENTRICITY":0.00458103,"INCLINATION":98.6088,"RA_OF_ASC_NODE":136.2447,"ARG_OF_PERICENTER":198.9434,"MEAN_ANOMALY":161.0079,"EPHEMERIS_TYPE":0,"CLASSIFICATION_TYPE":"U","NORAD_CAT_ID":54902,"ELEMENT_SET_NO":999,"REV_AT_EPOCH":17583,"BSTAR":0.0048981783,"MEAN_MOTION_DOT":0.00048606,"MEAN_MOTION_DDOT":0}]
